{
  "type": "FeatureCollection",
  "features": [
    {
      "type": "Feature",
      "properties": {
        "norad_id": 58701,
        "name": "TIANMU-1 16",
        "group": "weather",
        "lat": -82.1689498634638,
        "lon": -109.64134776896306,
        "alt_km": 496.7269682597562,
        "timestamp": "2025-12-23T07:45:09.040266+00:00",
        "meta_object_name": "TIANMU-1 16",
        "meta_object_id": "2024-004B",
        "meta_epoch": "2025-12-22T22:41:05.686080",
        "meta_mean_motion": 15.2456149,
        "meta_eccentricity": 0.00043587,
        "meta_inclination": 97.4564,
        "meta_ra_of_asc_node": 177.7569,
        "meta_arg_of_pericenter": 249.3516,
        "meta_mean_anomaly": 110.7255,
        "meta_ephemeris_type": 0,
        "meta_classification_type": "U",
        "meta_norad_cat_id": 58701,
        "meta_element_set_no": 999,
        "meta_rev_at_epoch": 10890,
        "meta_bstar": 0.00028820415,
        "meta_mean_motion_dot": 7.028e-05,
        "meta_mean_motion_ddot": 0,
        "tle_line1": "1 58701U 24004B   25356.94520470  .00007028  00000+0  28820-3 0  9992",
        "tle_line2": "2 58701  97.4564 177.7569 0004358 249.3516 110.7255 15.24561490108906"
      },
      "geometry": {
        "type": "Point",
        "coordinates": [
          -109.64134776896306,
          -82.1689498634638
        ]
      }
    },
    {
      "type": "Feature",
      "properties": {
        "norad_id": 58702,
        "name": "TIANMU-1 17",
        "group": "weather",
        "lat": -1.543488317403526,
        "lon": 178.75070675925124,
        "alt_km": 496.0463279991345,
        "timestamp": "2025-12-23T07:45:09.040276+00:00",
        "meta_object_name": "TIANMU-1 17",
        "meta_object_id": "2024-004C",
        "meta_epoch": "2025-12-22T22:18:29.562912",
        "meta_mean_motion": 15.24604498,
        "meta_eccentricity": 0.00035412,
        "meta_inclination": 97.4597,
        "meta_ra_of_asc_node": 178.1566,
        "meta_arg_of_pericenter": 250.8299,
        "meta_mean_anomaly": 109.2555,
        "meta_ephemeris_type": 0,
        "meta_classification_type": "U",
        "meta_norad_cat_id": 58702,
        "meta_element_set_no": 999,
        "meta_rev_at_epoch": 10889,
        "meta_bstar": 0.00030034457,
        "meta_mean_motion_dot": 7.337e-05,
        "meta_mean_motion_ddot": 0,
        "tle_line1": "1 58702U 24004C   25356.92950883  .00007337  00000+0  30034-3 0  9999",
        "tle_line2": "2 58702  97.4597 178.1566 0003541 250.8299 109.2555 15.24604498108893"
      },
      "geometry": {
        "type": "Point",
        "coordinates": [
          178.75070675925124,
          -1.543488317403526
        ]
      }
    },
    {
      "type": "Feature",
      "properties": {
        "norad_id": 58703,
        "name": "TIANMU-1 18",
        "group": "weather",
        "lat": 82.51560205501009,
        "lon": 92.70184102936857,
        "alt_km": 486.3700916047619,
        "timestamp": "2025-12-23T07:45:09.040286+00:00",
        "meta_object_name": "TIANMU-1 18",
        "meta_object_id": "2024-004D",
        "meta_epoch": "2025-12-22T23:29:07.114848",
        "meta_mean_motion": 15.2459028,
        "meta_eccentricity": 0.000291,
        "meta_inclination": 97.4616,
        "meta_ra_of_asc_node": 178.4029,
        "meta_arg_of_pericenter": 247.4761,
        "meta_mean_anomaly": 112.6169,
        "meta_ephemeris_type": 0,
        "meta_classification_type": "U",
        "meta_norad_cat_id": 58703,
        "meta_element_set_no": 999,
        "meta_rev_at_epoch": 10890,
        "meta_bstar": 0.00030065554,
        "meta_mean_motion_dot": 7.341e-05,
        "meta_mean_motion_ddot": 0,
        "tle_line1": "1 58703U 24004D   25356.97855457  .00007341  00000+0  30066-3 0  9996",
        "tle_line2": "2 58703  97.4616 178.4029 0002910 247.4761 112.6169 15.24590280108902"
      },
      "geometry": {
        "type": "Point",
        "coordinates": [
          92.70184102936857,
          82.51560205501009
        ]
      }
    },
    {
      "type": "Feature",
      "properties": {
        "norad_id": 58990,
        "name": "INSAT-3DS",
        "group": "weather",
        "lat": -0.03131477141722758,
        "lon": -69.49164409814024,
        "alt_km": 35781.41088929964,
        "timestamp": "2025-12-23T07:45:09.040302+00:00",
        "meta_object_name": "INSAT-3DS",
        "meta_object_id": "2024-033A",
        "meta_epoch": "2025-12-22T22:06:55.502208",
        "meta_mean_motion": 1.00271735,
        "meta_eccentricity": 0.00011592,
        "meta_inclination": 0.0565,
        "meta_ra_of_asc_node": 100.6756,
        "meta_arg_of_pericenter": 173.2771,
        "meta_mean_anomaly": 231.6064,
        "meta_ephemeris_type": 0,
        "meta_classification_type": "U",
        "meta_norad_cat_id": 58990,
        "meta_element_set_no": 999,
        "meta_rev_at_epoch": 4530,
        "meta_bstar": 0,
        "meta_mean_motion_dot": -1.35e-06,
        "meta_mean_motion_ddot": 0,
        "tle_line1": "1 58990U 24033A   25356.92147572 -.00000135  00000+0  00000+0 0  9999",
        "tle_line2": "2 58990   0.0565 100.6756 0001159 173.2771 231.6064  1.00271735 45308"
      },
      "geometry": {
        "type": "Point",
        "coordinates": [
          -69.49164409814024,
          -0.03131477141722758
        ]
      }
    },
    {
      "type": "Feature",
      "properties": {
        "norad_id": 59051,
        "name": "METEOR-M2 4",
        "group": "weather",
        "lat": -20.15170826788845,
        "lon": -42.72047548282547,
        "alt_km": 817.8063232805507,
        "timestamp": "2025-12-23T07:45:09.040352+00:00",
        "meta_object_name": "METEOR-M2 4",
        "meta_object_id": "2024-039A",
        "meta_epoch": "2025-12-22T23:24:24.715584",
        "meta_mean_motion": 14.22402782,
        "meta_eccentricity": 0.00065055,
        "meta_inclination": 98.6781,
        "meta_ra_of_asc_node": 313.7243,
        "meta_arg_of_pericenter": 327.9423,
        "meta_mean_anomaly": 32.1359,
        "meta_ephemeris_type": 0,
        "meta_classification_type": "U",
        "meta_norad_cat_id": 59051,
        "meta_element_set_no": 999,
        "meta_rev_at_epoch": 9421,
        "meta_bstar": 3.4571856e-05,
        "meta_mean_motion_dot": 3.3e-07,
        "meta_mean_motion_ddot": 0,
        "tle_line1": "1 59051U 24039A   25356.97528606  .00000033  00000+0  34572-4 0  9992",
        "tle_line2": "2 59051  98.6781 313.7243 0006505 327.9423  32.1359 14.22402782 94211"
      },
      "geometry": {
        "type": "Point",
        "coordinates": [
          -42.72047548282547,
          -20.15170826788845
        ]
      }
    },
    {
      "type": "Feature",
      "properties": {
        "norad_id": 60133,
        "name": "GOES 19",
        "group": "weather",
        "lat": 0.0021838847281826774,
        "lon": 133.21345519849962,
        "alt_km": 35790.06995878121,
        "timestamp": "2025-12-23T07:45:09.040368+00:00",
        "meta_object_name": "GOES 19",
        "meta_object_id": "2024-119A",
        "meta_epoch": "2025-12-22T21:21:59.804064",
        "meta_mean_motion": 1.00272021,
        "meta_eccentricity": 9.707e-05,
        "meta_inclination": 0.0098,
        "meta_ra_of_asc_node": 264.6523,
        "meta_arg_of_pericenter": 59.6972,
        "meta_mean_anomaly": 12.6533,
        "meta_ephemeris_type": 0,
        "meta_classification_type": "U",
        "meta_norad_cat_id": 60133,
        "meta_element_set_no": 999,
        "meta_rev_at_epoch": 519,
        "meta_bstar": 0,
        "meta_mean_motion_dot": -2.27e-06,
        "meta_mean_motion_ddot": 0,
        "tle_line1": "1 60133U 24119A   25356.89027551 -.00000227  00000+0  00000+0 0  9998",
        "tle_line2": "2 60133   0.0098 264.6523 0000970  59.6972  12.6533  1.00272021  5194"
      },
      "geometry": {
        "type": "Point",
        "coordinates": [
          133.21345519849962,
          0.0021838847281826774
        ]
      }
    },
    {
      "type": "Feature",
      "properties": {
        "norad_id": 65815,
        "name": "FENGYUN 3H",
        "group": "weather",
        "lat": 55.34984329531542,
        "lon": 129.42292144384635,
        "alt_km": 819.8302484549195,
        "timestamp": "2025-12-23T07:45:09.040380+00:00",
        "meta_object_name": "FENGYUN 3H",
        "meta_object_id": "2025-219A",
        "meta_epoch": "2025-12-22T22:42:58.832928",
        "meta_mean_motion": 14.19907269,
        "meta_eccentricity": 7.768e-05,
        "meta_inclination": 98.6599,
        "meta_ra_of_asc_node": 296.3158,
        "meta_arg_of_pericenter": 106.8572,
        "meta_mean_anomaly": 253.269,
        "meta_ephemeris_type": 0,
        "meta_classification_type": "U",
        "meta_norad_cat_id": 65815,
        "meta_element_set_no": 999,
        "meta_rev_at_epoch": 1237,
        "meta_bstar": 6.2033827e-05,
        "meta_mean_motion_dot": 8.8e-07,
        "meta_mean_motion_ddot": 0,
        "tle_line1": "1 65815U 25219A   25356.94651427  .00000088  00000+0  62034-4 0  9997",
        "tle_line2": "2 65815  98.6599 296.3158 0000776 106.8572 253.2690 14.19907269 12374"
      },
      "geometry": {
        "type": "Point",
        "coordinates": [
          129.42292144384635,
          55.34984329531542
        ]
      }
    }
  ]
}